NORAD_CAT_ID,OBJECT_NAME,OBJECT_TYPE,EPOCH,MEAN_MOTION,ECCENTRICITY,INCLINATION,RA_OF_ASC_NODE,ARG_OF_PERICENTER,MEAN_ANOMALY,BSTAR,MEAN_MOTION_DOT,MEAN_MOTION_DDOT,TLE_LINE0,TLE_LINE1,TLE_LINE2,SEMIMAJOR_AXIS,PERIOD,APOGEE,PERIGEE,DECAYED
52644.0,STARLINK-3985,PAYLOAD,2023-12-29 21:25:09,15.08840359,0.0001563,53.2149,254.0411,86.1896,273.9275,0.00016961,2.412e-05,0.0,0 STARLINK-3985,1 52644U 22052AY  23363.89246666  .00002412  00000-0  16961-3 0  9991,2 52644  53.2149 254.0411 0001563  86.1896 273.9275 15.08840359 90239,6917.879,95.438,540.826,538.663,0.0
52644.0,STARLINK-3985,PAYLOAD,2023-12-30 02:11:18,15.08846262,0.0001493,53.2149,253.1484,86.5711,273.5452,0.00019724,2.853e-05,0.0,0 STARLINK-3985,1 52644U 22052AY  23364.09118457  .00002853  00000-0  19724-3 0  9999,2 52644  53.2149 253.1484 0001493  86.5711 273.5452 15.08846262 90648,6917.861,95.437,540.759,538.693,0.0
52644.0,STARLINK-3985,PAYLOAD,2023-12-30 22:51:19,15.08847125,0.0001673,53.2152,249.2793,76.6713,283.4465,0.00024143,3.557e-05,0.0,0 STARLINK-3985,1 52644U 22052AY  23364.95230535  .00003557  00000-0  24143-3 0  9999,2 52644  53.2152 249.2793 0001673  76.6713 283.4465 15.08847125 90398,6917.859,95.437,540.881,538.566,0.0
52644.0,STARLINK-3985,PAYLOAD,2023-12-31 19:31:20,15.08840641,0.0001611,53.2143,245.4162,79.2874,280.83,7.4948e-05,9.05e-06,0.0,0 STARLINK-3985,1 52644U 22052AY  23365.81342787  .00000905  00000-0  74948-4 0  9991,2 52644  53.2143 245.4162 0001611  79.2874 280.8300 15.08840641 90907,6917.878,95.438,540.858,538.629,0.0
52644.0,STARLINK-3985,PAYLOAD,2023-12-31 21:06:43,15.08840056,0.0001496,53.2148,245.1185,86.4632,273.6531,4.8501e-05,4.84e-06,0.0,0 STARLINK-3985,1 52644U 22052AY  23365.87966779  .00000484  00000-0  48501-4 0  9998,2 52644  53.2148 245.1185 0001496  86.4632 273.6531 15.08840056 90532,6917.88,95.438,540.78,538.71,0.0
52644.0,STARLINK-3985,PAYLOAD,2023-12-31 22:42:06,15.0884064,0.0001477,53.2153,244.8213,85.3285,274.7876,4.6106e-05,4.46e-06,0.0,0 STARLINK-3985,1 52644U 22052AY  23365.94590743  .00000446  00000-0  46106-4 0  9997,2 52644  53.2153 244.8213 0001477  85.3285 274.7876 15.08840640 90541,6917.878,95.438,540.765,538.722,0.0
52644.0,STARLINK-3985,PAYLOAD,2024-01-01 20:57:29,15.08847074,0.0001405,53.2164,240.6591,74.5846,285.5302,0.00016372,2.319e-05,0.0,0 STARLINK-3985,1 52644U 22052AY  24001.87326156  .00002319  00000-0  16372-3 0  9994,2 52644  53.2164 240.6591 0001405  74.5846 285.5302 15.08847074 90687,6917.859,95.437,540.696,538.752,0.0
52644.0,STARLINK-3985,PAYLOAD,2024-01-02 01:43:39,15.08849905,0.0001446,53.2152,239.7665,80.0638,280.0518,0.00022134,3.237e-05,0.0,0 STARLINK-3985,1 52644U 22052AY  24002.07198129  .00003237  00000-0  22134-3 0  9997,2 52644  53.2152 239.7665 0001446  80.0638 280.0518 15.08849905 91091,6917.85,95.437,540.715,538.715,0.0
52644.0,STARLINK-3985,PAYLOAD,2024-01-02 19:12:53,15.08841824,0.0001473,53.215,236.4944,86.3368,273.7793,7.4496e-05,8.98e-06,0.0,0 STARLINK-3985,1 52644U 22052AY  24002.80062344  .00000898  00000-0  74496-4 0  9996,2 52644  53.2150 236.4944 0001473  86.3368 273.7793 15.08841824 91201,6917.875,95.437,540.759,538.721,0.0
52644.0,STARLINK-3985,PAYLOAD,2024-01-02 22:23:40,15.08841241,0.0001441,53.2161,235.8995,88.4034,271.7123,9.0845e-05,1.158e-05,0.0,0 STARLINK-3985,1 52644U 22052AY  24002.93310389  .00001158  00000-0  90845-4 0  9991,2 52644  53.2161 235.8995 0001441  88.4034 271.7123 15.08841241 90847,6917.877,95.437,540.738,538.745,0.0
52644.0,STARLINK-3985,PAYLOAD,2024-01-03 19:03:41,15.08836738,0.000158,53.2164,232.0336,102.1198,257.9971,-4.1777e-05,-9.53e-06,0.0,0 STARLINK-3985,1 52644U 22052AY  24003.79423008 -.00000953  00000-0 -41777-4 0  9993,2 52644  53.2164 232.0336 0001580 102.1198 257.9971 15.08836738 91356,6917.89,95.438,540.848,538.662,0.0
52644.0,STARLINK-3985,PAYLOAD,2024-01-03 20:39:04,15.08836137,0.0001557,53.2164,231.7362,101.2786,258.8381,-5.2107e-05,-1.117e-05,0.0,0 STARLINK-3985,1 52644U 22052AY  24003.86047074 -.00001117  00000-0 -52107-4 0  9998,2 52644  53.2164 231.7362 0001557 101.2786 258.8381 15.08836137 90984,6917.892,95.438,540.834,538.68,0.0
52644.0,STARLINK-3985,PAYLOAD,2024-01-03 23:49:50,15.08836532,0.0001514,53.2164,231.1414,95.9072,264.2093,-5.0816e-05,-1.097e-05,0.0,0 STARLINK-3985,1 52644U 22052AY  24003.99295074 -.00001097  00000-0 -50816-4 0  9999,2 52644  53.2164 231.1414 0001514  95.9072 264.2093 15.08836532 91000,6917.891,95.438,540.803,538.709,0.0
52644.0,STARLINK-3985,PAYLOAD,2024-01-04 20:29:51,15.08840741,0.0001489,53.2162,227.2744,95.366,264.7502,9.3827e-05,1.206e-05,0.0,0 STARLINK-3985,1 52644U 22052AY  24004.85406448  .00001206  00000-0  93827-4 0  9993,2 52644  53.2162 227.2744 0001489  95.3660 264.7502 15.08840741 91511,6917.878,95.438,540.773,538.713,0.0
52644.0,STARLINK-3985,PAYLOAD,2024-01-04 22:05:14,15.08841769,0.0001436,53.2159,226.9767,83.4372,276.6784,9.4925e-05,1.223e-05,0.0,0 STARLINK-3985,1 52644U 22052AY  24004.92030434  .00001223  00000-0  94925-4 0  9998,2 52644  53.2159 226.9767 0001436  83.4372 276.6784 15.08841769 91142,6917.875,95.437,540.733,538.747,0.0
52644.0,STARLINK-3985,PAYLOAD,2024-01-05 13:59:06,15.08833937,0.0001497,53.2159,224.0082,87.0654,273.0509,8.0133e-05,9.87e-06,0.0,0 STARLINK-3985,1 52644U 22052AY  24005.58271209  .00000987  00000-0  80133-4 0  9990,2 52644  53.2159 224.0082 0001497  87.0654 273.0509 15.08833937 91246,6917.899,95.438,540.8,538.728,0.0
52644.0,STARLINK-3985,PAYLOAD,2024-01-05 20:20:38,15.08834934,0.0001415,53.2157,222.8164,95.3506,264.7648,7.0966e-05,8.42e-06,0.0,0 STARLINK-3985,1 52644U 22052AY  24005.84767202  .00000842  00000-0  70966-4 0  9995,2 52644  53.2157 222.8164 0001415  95.3506 264.7648 15.08834934 91664,6917.896,95.438,540.74,538.782,0.0
52644.0,STARLINK-3985,PAYLOAD,2024-01-05 21:56:01,15.08836283,0.0001402,53.2157,222.5194,93.2641,266.8511,8.1361e-05,1.007e-05,0.0,0 STARLINK-3985,1 52644U 22052AY  24005.91391120  .00001007  00000-0  81361-4 0  9990,2 52644  53.2157 222.5194 0001402  93.2641 266.8511 15.08836283 91297,6917.892,95.438,540.727,538.787,0.0
52644.0,STARLINK-3985,PAYLOAD,2024-01-06 21:46:49,15.08840508,0.0001459,53.2156,218.0596,86.9995,273.1164,1.1785e-05,-1e-06,0.0,0 STARLINK-3985,1 52644U 22052AY  24006.90751235 -.00000100  00000-0  11785-4 0  9994,2 52644  53.2156 218.0596 0001459  86.9995 273.1164 15.08840508 91442,6917.879,95.438,540.753,538.735,0.0
52644.0,STARLINK-3985,PAYLOAD,2024-01-07 20:02:12,15.08842595,0.000148,53.2156,213.8967,80.4409,279.675,0.00010513,1.386e-05,0.0,0 STARLINK-3985,1 52644U 22052AY  24007.83486920  .00001386  00000-0  10513-3 0  9996,2 52644  53.2156 213.8967 0001480  80.4409 279.6750 15.08842595 91585,6917.872,95.437,540.761,538.714,0.0
52644.0,STARLINK-3985,PAYLOAD,2024-01-08 19:52:57,15.08874736,0.0001556,53.2162,209.4359,85.3466,274.7704,0.00032487,4.891e-05,0.0,0 STARLINK-3985,1 52644U 22052AY  24008.82844006  .00004891  00000-0  32487-3 0  9997,2 52644  53.2162 209.4359 0001556  85.3466 274.7704 15.08874736 92116,6917.774,95.435,540.716,538.563,0.0
52644.0,STARLINK-3985,PAYLOAD,2024-01-09 18:08:22,15.08850299,0.0001562,53.2154,205.2666,118.4159,241.6991,2.1479e-05,5.4e-07,0.0,0 STARLINK-3985,1 52644U 22052AY  24009.75581367  .00000054  00000-0  21479-4 0  9995,2 52644  53.2154 205.2666 0001562 118.4159 241.6991 15.08850299 92250,6917.849,95.437,540.794,538.633,0.0
52644.0,STARLINK-3985,PAYLOAD,2024-01-09 22:54:31,15.08847477,0.0001432,53.2159,204.3835,109.7377,250.3769,1.7487e-06,-2.6e-06,0.0,0 STARLINK-3985,1 52644U 22052AY  24009.95453612 -.00000260  00000-0  17487-5 0  9993,2 52644  53.2159 204.3835 0001432 109.7377 250.3769 15.08847477 91909,6917.858,95.437,540.713,538.732,0.0
52644.0,STARLINK-3985,PAYLOAD,2024-01-10 19:34:33,15.08850583,0.0001394,53.2157,200.5135,96.1476,263.9675,-0.00028708,-4.855e-05,0.0,0 STARLINK-3985,1 52644U 22052AY  24010.81566477 -.00004855  00000-0 -28708-3 0  9995,2 52644  53.2157 200.5135 0001394  96.1476 263.9675 15.08850583 92419,6917.848,95.437,540.677,538.749,0.0
52644.0,STARLINK-3985,PAYLOAD,2024-01-11 13:03:48,15.08819726,0.0001544,53.2159,197.2414,97.2434,262.8733,1.3873e-05,-6.7e-07,0.0,0 STARLINK-3985,1 52644U 22052AY  24011.54431631 -.00000067  00000-0  13873-4 0  9997,2 52644  53.2159 197.2414 0001544  97.2434 262.8733 15.08819726 92143,6917.942,95.439,540.875,538.739,0.0
52644.0,STARLINK-3985,PAYLOAD,2024-01-11 17:49:58,15.08820583,0.0001477,53.2159,196.3494,94.8651,265.2509,1.468e-05,-5.4e-07,0.0,0 STARLINK-3985,1 52644U 22052AY  24011.74303832 -.00000054  00000-0  14680-4 0  9993,2 52644  53.2159 196.3494 0001477  94.8651 265.2509 15.08820583 92556,6917.94,95.439,540.827,538.783,0.0
52644.0,STARLINK-3985,PAYLOAD,2024-01-11 21:00:44,15.08822033,0.0001476,53.2159,195.7547,93.562,266.5541,2.6226e-05,1.29e-06,0.0,0 STARLINK-3985,1 52644U 22052AY  24011.87551874  .00000129  00000-0  26226-4 0  9999,2 52644  53.2159 195.7547 0001476  93.5620 266.5541 15.08822033 92191,6917.935,95.439,540.821,538.779,0.0
52644.0,STARLINK-3985,PAYLOAD,2024-01-12 11:19:13,15.08824867,0.0001449,53.2158,193.0787,94.1284,265.9873,7.0234e-05,8.3e-06,0.0,0 STARLINK-3985,1 52644U 22052AY  24012.47168239  .00000830  00000-0  70234-4 0  9992,2 52644  53.2158 193.0787 0001449  94.1284 265.9873 15.08824867 92288,6917.927,95.439,540.794,538.789,0.0
52644.0,STARLINK-3985,PAYLOAD,2024-01-12 19:16:08,15.08830246,0.0001407,53.2156,191.5931,91.0311,269.0842,9.4283e-05,1.213e-05,0.0,0 STARLINK-3985,1 52644U 22052AY  24012.80288129  .00001213  00000-0  94283-4 0  9996,2 52644  53.2156 191.5931 0001407  91.0311 269.0842 15.08830246 92718,6917.91,95.438,540.749,538.802,0.0
52644.0,STARLINK-3985,PAYLOAD,2024-01-13 19:06:55,15.08844727,0.0001346,53.2158,187.1324,90.4019,269.7127,0.00021673,3.163e-05,0.0,0 STARLINK-3985,1 52644U 22052AY  24013.79647406  .00003163  00000-0  21673-3 0  9990,2 52644  53.2158 187.1324 0001346  90.4019 269.7127 15.08844727 92865,6917.866,95.437,540.662,538.8,0.0
